[{"OBJECT_NAME":"STARLINK-11298 [DTC]","OBJECT_ID":"2024-171M","EPOCH":"2026-03-09T13:20:56.959584","MEAN_MOTION":15.69705614,"ECCENTRICITY":0.0001541,"INCLINATION":53.1602,"RA_OF_ASC_NODE":177.218,"ARG_OF_PERICENTER":111.7181,"MEAN_ANOMALY":248.4001,"EPHEMERIS_TYPE":0,"CLASSIFICATION_TYPE":"U","NORAD_CAT_ID":61211,"ELEMENT_SET_NO":999,"REV_AT_EPOCH":8437,"BSTAR":4.1992e-6,"MEAN_MOTION_DOT":-8.1e-7,"MEAN_MOTION_DDOT":0},{"OBJECT_NAME":"TUSUR GO (RS78S)","OBJECT_ID":"2024-199AZ","EPOCH":"2026-03-09T22:48:41.341536","MEAN_MOTION":15.7089308,"ECCENTRICITY":0.00036127,"INCLINATION":97.3018,"RA_OF_ASC_NODE":306.7757,"ARG_OF_PERICENTER":269.724,"MEAN_ANOMALY":90.3609,"EPHEMERIS_TYPE":0,"CLASSIFICATION_TYPE":"U","NORAD_CAT_ID":61782,"ELEMENT_SET_NO":999,"REV_AT_EPOCH":11926,"BSTAR":0.0013446465,"MEAN_MOTION_DOT":0.00170473,"MEAN_MOTION_DDOT":0}]
